QIANFAN-73              
1 63159U 25046A   25355.56717865  .00000104  00000+0  14217-3 0  9998
2 63159  88.9769 319.1088 0016880  96.3234 263.9840 13.50979050 48602
QIANFAN-74              
1 63160U 25046B   25355.55056481  .00000099  00000+0  13470-3 0  9992
2 63160  88.9770 318.9993 0002027  74.8486 285.2889 13.50975847 48662
QIANFAN-75              
1 63161U 25046C   25355.46378423  .00000145  00000+0  20614-3 0  9996
2 63161  88.9771 319.2420 0017967  99.3213 260.9971 13.50981153 48526
QIANFAN-76              
1 63162U 25046D   25355.53449682  .00000155  00000+0  22176-3 0  9997
2 63162  88.9770 319.2153 0015524  99.3077 260.9830 13.50981638 48548
QIANFAN-77              
1 63163U 25046E   25355.57318215  .00000293  00000+0  20378-3 0  9994
2 63163  88.9772 317.1458 0016862  56.7368 303.5422 13.96094182 49688
QIANFAN-78              
1 63164U 25046F   25355.57538073  .00000107  00000+0  14630-3 0  9999
2 63164  88.9769 319.0750 0016867 101.3838 258.9209 13.50979400 48629
QIANFAN-79              
1 63165U 25046G   25355.60403139  .00000110  00000+0  15101-3 0  9996
2 63165  88.9773 319.1799 0016590  99.7304 260.5722 13.50981076 48575
QIANFAN-80              
1 63166U 25046H   25355.54649874  .00000127  00000+0  17706-3 0  9999
2 63166  88.9771 318.8924 0015492 103.4666 256.8213 13.50979076 48721
